STARLINK-1366
1 45569U 20025AQ  26092.91668981  .00262468  00000+0  12353-2 0  9998
2 45569  53.0385 277.1494 0003782 152.0891 323.4139 15.81858322  5985
STARLINK-1790
1 46691U 20073X   26092.83335647  .00360042  00000+0  16757-2 0  9998
2 46691  53.0372  77.9029 0001580 110.4784 163.3119 15.81843166  5968
